[{"OBJECT_NAME":"STARLINK-35916","OBJECT_ID":"2025-263V","EPOCH":"2026-03-08T19:39:42.958080","MEAN_MOTION":15.27594257,"ECCENTRICITY":6.423e-5,"INCLINATION":42.9965,"RA_OF_ASC_NODE":359.2903,"ARG_OF_PERICENTER":328.5572,"MEAN_ANOMALY":31.5241,"EPHEMERIS_TYPE":0,"CLASSIFICATION_TYPE":"U","NORAD_CAT_ID":66504,"ELEMENT_SET_NO":999,"REV_AT_EPOCH":1872,"BSTAR":0.0011589109,"MEAN_MOTION_DOT":0.0003178,"MEAN_MOTION_DDOT":0},{"OBJECT_NAME":"CZ-4C R\/B","OBJECT_ID":"2022-039B","EPOCH":"2026-03-09T15:51:32.485824","MEAN_MOTION":15.03008334,"ECCENTRICITY":0.0113659,"INCLINATION":98.2525,"RA_OF_ASC_NODE":105.9247,"ARG_OF_PERICENTER":45.8852,"MEAN_ANOMALY":315.1654,"EPHEMERIS_TYPE":0,"CLASSIFICATION_TYPE":"U","NORAD_CAT_ID":52258,"ELEMENT_SET_NO":999,"REV_AT_EPOCH":21291,"BSTAR":0.00022979194,"MEAN_MOTION_DOT":3.483e-5,"MEAN_MOTION_DDOT":0}]
